{"type": "FeatureCollection", "features": [ {"type": "Feature", "properties": {"norad_id": 34077, "name": "IRIDIUM 33 DEB", "group": "iridium-33-debris", "lat": 20.881119342882116, "lon": -129.8964113469743, "alt_km": 681.1536246214355, "timestamp": "2025-12-12T18:57:44.514370+00:00", "meta": {"OBJECT_NAME": "IRIDIUM 33 DEB", "OBJECT_ID": "1997-051CL", "EPOCH": "2025-12-12T05:23:02.919840", "MEAN_MOTION": 14.6483143, "ECCENTRICITY": 0.00102947, "INCLINATION": 86.386, "RA_OF_ASC_NODE": 51.7343, "ARG_OF_PERICENTER": 41.6273, "MEAN_ANOMALY": 15.6908, "EPHEMERIS_TYPE": 0, "CLASSIFICATION_TYPE": "U", "NORAD_CAT_ID": 34077, "ELEMENT_SET_NO": 999, "REV_AT_EPOCH": 88325, "BSTAR": 0.0022376542, "MEAN_MOTION_DOT": 0.00011982, "MEAN_MOTION_DDOT": 0}, "tle": {"line1": "1 34077U 97051CL  25346.22433935  .00011982  00000+0  22377-2 0  9997", "line2": "2 34077  86.3860  51.7343 0010294  41.6273  15.6908 14.64831430883255"}}, "geometry": {"type": "Point", "coordinates": [-129.8964113469743, 20.881119342882116]}}, {"type": "Feature", "properties": {"norad_id": 34079, "name": "IRIDIUM 33 DEB", "group": "iridium-33-debris", "lat": 25.821273742017663, "lon": -173.11700433953553, "alt_km": 620.7524047566967, "timestamp": "2025-12-12T18:57:44.514380+00:00", "meta": {"OBJECT_NAME": "IRIDIUM 33 DEB", "OBJECT_ID": "1997-051CN", "EPOCH": "2025-12-12T02:19:21.891360", "MEAN_MOTION": 14.83502874, "ECCENTRICITY": 0.00056447, "INCLINATION": 86.3781, "RA_OF_ASC_NODE": 8.9545, "ARG_OF_PERICENTER": 10.4364, "MEAN_ANOMALY": 43.223, "EPHEMERIS_TYPE": 0, "CLASSIFICATION_TYPE": "U", "NORAD_CAT_ID": 34079, "ELEMENT_SET_NO": 999, "REV_AT_EPOCH": 88968, "BSTAR": 0.0022555741, "MEAN_MOTION_DOT": 0.00018607, "MEAN_MOTION_DDOT": 0}, "tle": {"line1": "1 34079U 97051CN  25346.09678115  .00018607  00000+0  22556-2 0  9995", "line2": "2 34079  86.3781   8.9545 0005644  10.4364  43.2230 14.83502874889681"}}, "geometry": {"type": "Point", "coordinates": [-173.11700433953553, 25.821273742017663]}}, {"type": "Feature", "properties": {"norad_id": 34088, "name": "IRIDIUM 33 DEB", "group": "iridium-33-debris", "lat": -66.5450121838277, "lon": -140.92102008453884, "alt_km": 599.6136936084495, "timestamp": "2025-12-12T18:57:44.514390+00:00", "meta": {"OBJECT_NAME": "IRIDIUM 33 DEB", "OBJECT_ID": "1997-051CX", "EPOCH": "2025-12-12T03:36:20.386944", "MEAN_MOTION": 14.91344676, "ECCENTRICITY": 0.00055799, "INCLINATION": 86.3851, "RA_OF_ASC_NODE": 30.9947, "ARG_OF_PERICENTER": 178.9664, "MEAN_ANOMALY": 234.6455, "EPHEMERIS_TYPE": 0, "CLASSIFICATION_TYPE": "U", "NORAD_CAT_ID": 34088, "ELEMENT_SET_NO": 999, "REV_AT_EPOCH": 88733, "BSTAR": 0.0035088901, "MEAN_MOTION_DOT": 0.00035146, "MEAN_MOTION_DDOT": 0}, "tle": {"line1": "1 34088U 97051CX  25346.15023596  .00035146  00000+0  35089-2 0  9991", "line2": "2 34088  86.3851  30.9947 0005579 178.9664 234.6455 14.91344676887338"}}, "geometry": {"type": "Point", "coordinates": [-140.92102008453884, -66.5450121838277]}}, {"type": "Feature", "properties": {"norad_id": 34091, "name": "IRIDIUM 33 DEB", "group": "iridium-33-debris", "lat": 70.34415975100906, "lon": 77.12928290325887, "alt_km": 634.2045179307679, "timestamp": "2025-12-12T18:57:44.514401+00:00", "meta": {"OBJECT_NAME": "IRIDIUM 33 DEB", "OBJECT_ID": "1997-051DA", "EPOCH": "2025-12-12T05:40:42.487968", "MEAN_MOTION": 14.81773755, "ECCENTRICITY": 0.00337743, "INCLINATION": 86.3416, "RA_OF_ASC_NODE": 67.0638, "ARG_OF_PERICENTER": 295.1725, "MEAN_ANOMALY": 64.5996, "EPHEMERIS_TYPE": 0, "CLASSIFICATION_TYPE": "U", "NORAD_CAT_ID": 34091, "ELEMENT_SET_NO": 999, "REV_AT_EPOCH": 87859, "BSTAR": 0.007483738, "MEAN_MOTION_DOT": 0.00060085, "MEAN_MOTION_DDOT": 0}, "tle": {"line1": "1 34091U 97051DA  25346.23660287  .00060085  00000+0  74837-2 0  9992", "line2": "2 34091  86.3416  67.0638 0033774 295.1725  64.5996 14.81773755878596"}}, "geometry": {"type": "Point", "coordinates": [77.12928290325887, 70.34415975100906]}}, {"type": "Feature", "properties": {"norad_id": 34097, "name": "IRIDIUM 33 DEB", "group": "iridium-33-debris", "lat": -50.41316570389874, "lon": -3.2236188061203035, "alt_km": 746.4976187598122, "timestamp": "2025-12-12T18:57:44.514411+00:00", "meta": {"OBJECT_NAME": "IRIDIUM 33 DEB", "OBJECT_ID": "1997-051DG", "EPOCH": "2025-12-12T00:46:57.891936", "MEAN_MOTION": 14.3476745, "ECCENTRICITY": 0.0082672, "INCLINATION": 86.2008, "RA_OF_ASC_NODE": 1.7198, "ARG_OF_PERICENTER": 4.5012, "MEAN_ANOMALY": 355.6908, "EPHEMERIS_TYPE": 0, "CLASSIFICATION_TYPE": "U", "NORAD_CAT_ID": 34097, "ELEMENT_SET_NO": 999, "REV_AT_EPOCH": 87109, "BSTAR": 0.002168, "MEAN_MOTION_DOT": 6.405e-05, "MEAN_MOTION_DDOT": 0}, "tle": {"line1": "1 34097U 97051DG  25346.03261449  .00006405  00000+0  21680-2 0  9997", "line2": "2 34097  86.2008   1.7198 0082672   4.5012 355.6908 14.34767450871094"}}, "geometry": {"type": "Point", "coordinates": [-3.2236188061203035, -50.41316570389874]}}, {"type": "Feature", "properties": {"norad_id": 34145, "name": "IRIDIUM 33 DEB", "group": "iridium-33-debris", "lat": -41.38814688321636, "lon": 155.85124549566706, "alt_km": 781.8203307447402, "timestamp": "2025-12-12T18:57:44.514421+00:00", "meta": {"OBJECT_NAME": "IRIDIUM 33 DEB", "OBJECT_ID": "1997-051DY", "EPOCH": "2025-12-11T23:37:41.599200", "MEAN_MOTION": 14.42279969, "ECCENTRICITY": 0.0055694, "INCLINATION": 86.2122, "RA_OF_ASC_NODE": 332.8629, "ARG_OF_PERICENTER": 96.2305, "MEAN_ANOMALY": 264.5244, "EPHEMERIS_TYPE": 0, "CLASSIFICATION_TYPE": "U", "NORAD_CAT_ID": 34145, "ELEMENT_SET_NO": 999, "REV_AT_EPOCH": 87627, "BSTAR": 0.0017354, "MEAN_MOTION_DOT": 5.852e-05, "MEAN_MOTION_DDOT": 0}, "tle": {"line1": "1 34145U 97051DY  25345.98450925  .00005852  00000+0  17354-2 0  9991", "line2": "2 34145  86.2122 332.8629 0055694  96.2305 264.5244 14.42279969876277"}}, "geometry": {"type": "Point", "coordinates": [155.85124549566706, -41.38814688321636]}}, {"type": "Feature", "properties": {"norad_id": 34146, "name": "IRIDIUM 33 DEB", "group": "iridium-33-debris", "lat": -39.76469074845217, "lon": 172.87853021239857, "alt_km": 717.2816178523544, "timestamp": "2025-12-12T18:57:44.514432+00:00", "meta": {"OBJECT_NAME": "IRIDIUM 33 DEB", "OBJECT_ID": "1997-051DZ", "EPOCH": "2025-12-11T23:59:18.754368", "MEAN_MOTION": 14.49040748, "ECCENTRICITY": 0.0025427, "INCLINATION": 86.284, "RA_OF_ASC_NODE": 350.1275, "ARG_OF_PERICENTER": 224.2485, "MEAN_ANOMALY": 194.0777, "EPHEMERIS_TYPE": 0, "CLASSIFICATION_TYPE": "U", "NORAD_CAT_ID": 34146, "ELEMENT_SET_NO": 999, "REV_AT_EPOCH": 88096, "BSTAR": 0.0014807, "MEAN_MOTION_DOT": 5.661e-05, "MEAN_MOTION_DDOT": 0}, "tle": {"line1": "1 34146U 97051DZ  25345.99952262  .00005661  00000+0  14807-2 0  9992", "line2": "2 34146  86.2840 350.1275 0025427 224.2485 194.0777 14.49040748880965"}}, "geometry": {"type": "Point", "coordinates": [172.87853021239857, -39.76469074845217]}}, {"type": "Feature", "properties": {"norad_id": 34159, "name": "IRIDIUM 33 DEB", "group": "iridium-33-debris", "lat": -67.03962484234766, "lon": 39.55670859724344, "alt_km": 752.2790531015107, "timestamp": "2025-12-12T18:57:44.514442+00:00", "meta": {"OBJECT_NAME": "IRIDIUM 33 DEB", "OBJECT_ID": "1997-051EN", "EPOCH": "2025-12-12T04:14:54.367296", "MEAN_MOTION": 14.38492012, "ECCENTRICITY": 0.0026045, "INCLINATION": 86.351, "RA_OF_ASC_NODE": 48.4813, "ARG_OF_PERICENTER": 289.8308, "MEAN_ANOMALY": 70.0083, "EPHEMERIS_TYPE": 0, "CLASSIFICATION_TYPE": "U", "NORAD_CAT_ID": 34159, "ELEMENT_SET_NO": 999, "REV_AT_EPOCH": 87951, "BSTAR": 0.00065904202, "MEAN_MOTION_DOT": 2.039e-05, "MEAN_MOTION_DDOT": 0}, "tle": {"line1": "1 34159U 97051EN  25346.17701814  .00002039  00000+0  65904-3 0  9993", "line2": "2 34159  86.3510  48.4813 0026045 289.8308  70.0083 14.38492012879512"}}, "geometry": {"type": "Point", "coordinates": [39.55670859724344, -67.03962484234766]}}, {"type": "Feature", "properties": {"norad_id": 34350, "name": "IRIDIUM 33 DEB", "group": "iridium-33-debris", "lat": -37.30293987713813, "lon": -0.019231704041374073, "alt_km": 763.2986214899456, "timestamp": "2025-12-12T18:57:44.514452+00:00", "meta": {"OBJECT_NAME": "IRIDIUM 33 DEB", "OBJECT_ID": "1997-051ES", "EPOCH": "2025-12-12T07:35:44.115648", "MEAN_MOTION": 14.45385544, "ECCENTRICITY": 0.00227905, "INCLINATION": 86.3276, "RA_OF_ASC_NODE": 2.9909, "ARG_OF_PERICENTER": 136.4932, "MEAN_ANOMALY": 243.4155, "EPHEMERIS_TYPE": 0, "CLASSIFICATION_TYPE": "U", "NORAD_CAT_ID": 34350, "ELEMENT_SET_NO": 999, "REV_AT_EPOCH": 88287, "BSTAR": 0.00048199861, "MEAN_MOTION_DOT": 1.72e-05, "MEAN_MOTION_DDOT": 0}, "tle": {"line1": "1 34350U 97051ES  25346.31648282  .00001720  00000+0  48200-3 0  9997", "line2": "2 34350  86.3276   2.9909 0022790 136.4932 243.4155 14.45385544882876"}}, "geometry": {"type": "Point", "coordinates": [-0.019231704041374073, -37.30293987713813]}}, {"type": "Feature", "properties": {"norad_id": 34366, "name": "IRIDIUM 33 DEB", "group": "iridium-33-debris", "lat": -67.38862431612554, "lon": 40.52238064625727, "alt_km": 733.9294317844942, "timestamp": "2025-12-12T18:57:44.514463+00:00", "meta": {"OBJECT_NAME": "IRIDIUM 33 DEB", "OBJECT_ID": "1997-051FJ", "EPOCH": "2025-12-12T04:39:17.531424", "MEAN_MOTION": 14.54051979, "ECCENTRICITY": 0.00224311, "INCLINATION": 86.3694, "RA_OF_ASC_NODE": 49.5503, "ARG_OF_PERICENTER": 141.384, "MEAN_ANOMALY": 272.3047, "EPHEMERIS_TYPE": 0, "CLASSIFICATION_TYPE": "U", "NORAD_CAT_ID": 34366, "ELEMENT_SET_NO": 999, "REV_AT_EPOCH": 88174, "BSTAR": 0.0017102167, "MEAN_MOTION_DOT": 7.261e-05, "MEAN_MOTION_DDOT": 0}, "tle": {"line1": "1 34366U 97051FJ  25346.19395291  .00007261  00000+0  17102-2 0  9991", "line2": "2 34366  86.3694  49.5503 0022431 141.3840 272.3047 14.54051979881747"}}, "geometry": {"type": "Point", "coordinates": [40.52238064625727, -67.38862431612554]}}]}